{"type": "FeatureCollection", "features": [ {"type": "Feature", "properties": {"norad_id": 37280, "name": "COSMOS 2251 DEB", "group": "cosmos-2251-debris", "lat": -0.7873357606581082, "lon": 55.72199640330697, "alt_km": 924.4368502236648, "timestamp": "2025-12-13T08:49:16.089204+00:00", "meta": {"OBJECT_NAME": "COSMOS 2251 DEB", "OBJECT_ID": "1993-036BHU", "EPOCH": "2025-12-11T21:18:02.152224", "MEAN_MOTION": 14.19307625, "ECCENTRICITY": 0.0131129, "INCLINATION": 74.0314, "RA_OF_ASC_NODE": 58.592, "ARG_OF_PERICENTER": 187.3743, "MEAN_ANOMALY": 172.5477, "EPHEMERIS_TYPE": 0, "CLASSIFICATION_TYPE": "U", "NORAD_CAT_ID": 37280, "ELEMENT_SET_NO": 999, "REV_AT_EPOCH": 57311, "BSTAR": 0.0026008, "MEAN_MOTION_DOT": 5.928e-05, "MEAN_MOTION_DDOT": 0}, "tle": {"line1": "1 37280U 93036BHU 25345.88752491  .00005928  00000+0  26008-2 0  9995", "line2": "2 37280  74.0314  58.5920 0131129 187.3743 172.5477 14.19307625573118"}}, "geometry": {"type": "Point", "coordinates": [55.72199640330697, -0.7873357606581082]}}, {"type": "Feature", "properties": {"norad_id": 37284, "name": "COSMOS 2251 DEB", "group": "cosmos-2251-debris", "lat": -14.527906655715162, "lon": 151.35464285606952, "alt_km": 761.946214212905, "timestamp": "2025-12-13T08:49:16.089214+00:00", "meta": {"OBJECT_NAME": "COSMOS 2251 DEB", "OBJECT_ID": "1993-036BHY", "EPOCH": "2025-12-10T18:04:20.469216", "MEAN_MOTION": 14.12686618, "ECCENTRICITY": 0.01605026, "INCLINATION": 74.0123, "RA_OF_ASC_NODE": 160.2425, "ARG_OF_PERICENTER": 312.4867, "MEAN_ANOMALY": 59.8736, "EPHEMERIS_TYPE": 0, "CLASSIFICATION_TYPE": "U", "NORAD_CAT_ID": 37284, "ELEMENT_SET_NO": 999, "REV_AT_EPOCH": 59147, "BSTAR": 0.001592138, "MEAN_MOTION_DOT": 3.31e-05, "MEAN_MOTION_DDOT": 0}, "tle": {"line1": "1 37284U 93036BHY 25344.75301469  .00003310  00000+0  15921-2 0  9994", "line2": "2 37284  74.0123 160.2425 0160502 312.4867  59.8736 14.12686618591475"}}, "geometry": {"type": "Point", "coordinates": [151.35464285606952, -14.527906655715162]}}, {"type": "Feature", "properties": {"norad_id": 37292, "name": "COSMOS 2251 DEB", "group": "cosmos-2251-debris", "lat": 73.63901618763877, "lon": 124.39397484635134, "alt_km": 747.9035785257456, "timestamp": "2025-12-13T08:49:16.089224+00:00", "meta": {"OBJECT_NAME": "COSMOS 2251 DEB", "OBJECT_ID": "1993-036BJG", "EPOCH": "2025-12-02T14:04:30.366912", "MEAN_MOTION": 14.03226454, "ECCENTRICITY": 0.02102512, "INCLINATION": 74.129, "RA_OF_ASC_NODE": 67.3453, "ARG_OF_PERICENTER": 73.1105, "MEAN_ANOMALY": 289.2966, "EPHEMERIS_TYPE": 0, "CLASSIFICATION_TYPE": "U", "NORAD_CAT_ID": 37292, "ELEMENT_SET_NO": 999, "REV_AT_EPOCH": 59706, "BSTAR": 0.0022453288, "MEAN_MOTION_DOT": 4.236e-05, "MEAN_MOTION_DDOT": 0}, "tle": {"line1": "1 37292U 93036BJG 25336.58646258  .00004236  00000+0  22453-2 0  9999", "line2": "2 37292  74.1290  67.3453 0210251  73.1105 289.2966 14.03226454597064"}}, "geometry": {"type": "Point", "coordinates": [124.39397484635134, 73.63901618763877]}}, {"type": "Feature", "properties": {"norad_id": 37295, "name": "COSMOS 2251 DEB", "group": "cosmos-2251-debris", "lat": 38.58346457202751, "lon": 87.18634170604426, "alt_km": 649.3009987484693, "timestamp": "2025-12-13T08:49:16.089234+00:00", "meta": {"OBJECT_NAME": "COSMOS 2251 DEB", "OBJECT_ID": "1993-036BJK", "EPOCH": "2025-12-12T05:58:20.727264", "MEAN_MOTION": 14.65233803, "ECCENTRICITY": 0.00437931, "INCLINATION": 74.0065, "RA_OF_ASC_NODE": 282.5698, "ARG_OF_PERICENTER": 101.9885, "MEAN_ANOMALY": 258.6197, "EPHEMERIS_TYPE": 0, "CLASSIFICATION_TYPE": "U", "NORAD_CAT_ID": 37295, "ELEMENT_SET_NO": 999, "REV_AT_EPOCH": 82297, "BSTAR": 0.00093255653, "MEAN_MOTION_DOT": 5.067e-05, "MEAN_MOTION_DDOT": 0}, "tle": {"line1": "1 37295U 93036BJK 25346.24885101  .00005067  00000+0  93256-3 0  9991", "line2": "2 37295  74.0065 282.5698 0043793 101.9885 258.6197 14.65233803822979"}}, "geometry": {"type": "Point", "coordinates": [87.18634170604426, 38.58346457202751]}}, {"type": "Feature", "properties": {"norad_id": 37305, "name": "COSMOS 2251 DEB", "group": "cosmos-2251-debris", "lat": -33.53039777747806, "lon": 120.40917196481452, "alt_km": 747.3974427759231, "timestamp": "2025-12-13T08:49:16.089245+00:00", "meta": {"OBJECT_NAME": "COSMOS 2251 DEB", "OBJECT_ID": "1993-036BJV", "EPOCH": "2025-12-10T14:37:05.458080", "MEAN_MOTION": 14.36123744, "ECCENTRICITY": 0.005028, "INCLINATION": 73.8703, "RA_OF_ASC_NODE": 294.4681, "ARG_OF_PERICENTER": 255.1941, "MEAN_ANOMALY": 104.3638, "EPHEMERIS_TYPE": 0, "CLASSIFICATION_TYPE": "U", "NORAD_CAT_ID": 37305, "ELEMENT_SET_NO": 999, "REV_AT_EPOCH": 66836, "BSTAR": 0.0011247, "MEAN_MOTION_DOT": 3.297e-05, "MEAN_MOTION_DDOT": 0}, "tle": {"line1": "1 37305U 93036BJV 25344.60909095  .00003297  00000+0  11247-2 0  9992", "line2": "2 37305  73.8703 294.4681 0050280 255.1941 104.3638 14.36123744668363"}}, "geometry": {"type": "Point", "coordinates": [120.40917196481452, -33.53039777747806]}}, {"type": "Feature", "properties": {"norad_id": 37312, "name": "COSMOS 2251 DEB", "group": "cosmos-2251-debris", "lat": -71.09628082191024, "lon": 146.27386670998186, "alt_km": 733.4973887936367, "timestamp": "2025-12-13T08:49:16.089255+00:00", "meta": {"OBJECT_NAME": "COSMOS 2251 DEB", "OBJECT_ID": "1993-036BKC", "EPOCH": "2025-12-09T00:35:23.995392", "MEAN_MOTION": 14.46107555, "ECCENTRICITY": 0.00182852, "INCLINATION": 74.0311, "RA_OF_ASC_NODE": 211.115, "ARG_OF_PERICENTER": 314.7028, "MEAN_ANOMALY": 45.264, "EPHEMERIS_TYPE": 0, "CLASSIFICATION_TYPE": "U", "NORAD_CAT_ID": 37312, "ELEMENT_SET_NO": 999, "REV_AT_EPOCH": 86110, "BSTAR": 0.00057614872, "MEAN_MOTION_DOT": 2.035e-05, "MEAN_MOTION_DDOT": 0}, "tle": {"line1": "1 37312U 93036BKC 25343.02458328  .00002035  00000+0  57615-3 0  9992", "line2": "2 37312  74.0311 211.1150 0018285 314.7028  45.2640 14.46107555861109"}}, "geometry": {"type": "Point", "coordinates": [146.27386670998186, -71.09628082191024]}}, {"type": "Feature", "properties": {"norad_id": 37316, "name": "COSMOS 2251 DEB", "group": "cosmos-2251-debris", "lat": -45.99975485867419, "lon": -142.93426194927406, "alt_km": 605.9719234314553, "timestamp": "2025-12-13T08:49:16.089265+00:00", "meta": {"OBJECT_NAME": "COSMOS 2251 DEB", "OBJECT_ID": "1993-036BKG", "EPOCH": "2025-12-12T12:31:34.871232", "MEAN_MOTION": 14.94485363, "ECCENTRICITY": 0.0029307, "INCLINATION": 74.0203, "RA_OF_ASC_NODE": 21.5089, "ARG_OF_PERICENTER": 89.6992, "MEAN_ANOMALY": 270.755, "EPHEMERIS_TYPE": 0, "CLASSIFICATION_TYPE": "U", "NORAD_CAT_ID": 37316, "ELEMENT_SET_NO": 999, "REV_AT_EPOCH": 86140, "BSTAR": 0.0028276502, "MEAN_MOTION_DOT": 0.00030882, "MEAN_MOTION_DDOT": 0}, "tle": {"line1": "1 37316U 93036BKG 25346.52193138  .00030882  00000+0  28277-2 0  9991", "line2": "2 37316  74.0203  21.5089 0029307  89.6992 270.7550 14.94485363861409"}}, "geometry": {"type": "Point", "coordinates": [-142.93426194927406, -45.99975485867419]}}, {"type": "Feature", "properties": {"norad_id": 37320, "name": "COSMOS 2251 DEB", "group": "cosmos-2251-debris", "lat": -31.156893258442693, "lon": -153.02950805513854, "alt_km": 608.6881029984243, "timestamp": "2025-12-13T08:49:16.089276+00:00", "meta": {"OBJECT_NAME": "COSMOS 2251 DEB", "OBJECT_ID": "1993-036BKL", "EPOCH": "2025-12-11T08:15:28.693440", "MEAN_MOTION": 14.78755707, "ECCENTRICITY": 0.00469304, "INCLINATION": 74.0456, "RA_OF_ASC_NODE": 220.9045, "ARG_OF_PERICENTER": 308.1681, "MEAN_ANOMALY": 51.527, "EPHEMERIS_TYPE": 0, "CLASSIFICATION_TYPE": "U", "NORAD_CAT_ID": 37320, "ELEMENT_SET_NO": 999, "REV_AT_EPOCH": 66126, "BSTAR": 0.0016772012, "MEAN_MOTION_DOT": 0.00012539, "MEAN_MOTION_DDOT": 0}, "tle": {"line1": "1 37320U 93036BKL 25345.34408210  .00012539  00000+0  16772-2 0  9991", "line2": "2 37320  74.0456 220.9045 0046930 308.1681  51.5270 14.78755707661266"}}, "geometry": {"type": "Point", "coordinates": [-153.02950805513854, -31.156893258442693]}}, {"type": "Feature", "properties": {"norad_id": 37326, "name": "COSMOS 2251 DEB", "group": "cosmos-2251-debris", "lat": 42.85446498320056, "lon": 138.080012742836, "alt_km": 651.4769632492234, "timestamp": "2025-12-13T08:49:16.089285+00:00", "meta": {"OBJECT_NAME": "COSMOS 2251 DEB", "OBJECT_ID": "1993-036BKS", "EPOCH": "2025-12-12T07:34:09.729696", "MEAN_MOTION": 14.61572404, "ECCENTRICITY": 0.00547779, "INCLINATION": 74.0262, "RA_OF_ASC_NODE": 335.5049, "ARG_OF_PERICENTER": 104.6745, "MEAN_ANOMALY": 256.0503, "EPHEMERIS_TYPE": 0, "CLASSIFICATION_TYPE": "U", "NORAD_CAT_ID": 37326, "ELEMENT_SET_NO": 999, "REV_AT_EPOCH": 85477, "BSTAR": 0.00081564532, "MEAN_MOTION_DOT": 4.11e-05, "MEAN_MOTION_DDOT": 0}, "tle": {"line1": "1 37326U 93036BKS 25346.31539039  .00004110  00000+0  81565-3 0  9998", "line2": "2 37326  74.0262 335.5049 0054777 104.6745 256.0503 14.61572404854776"}}, "geometry": {"type": "Point", "coordinates": [138.080012742836, 42.85446498320056]}}, {"type": "Feature", "properties": {"norad_id": 37330, "name": "COSMOS 2251 DEB", "group": "cosmos-2251-debris", "lat": 50.60864824313141, "lon": 93.46284667259073, "alt_km": 650.8410157827602, "timestamp": "2025-12-13T08:49:16.089295+00:00", "meta": {"OBJECT_NAME": "COSMOS 2251 DEB", "OBJECT_ID": "1993-036BKW", "EPOCH": "2025-12-12T14:08:58.585344", "MEAN_MOTION": 14.59539529, "ECCENTRICITY": 0.00570073, "INCLINATION": 74.0183, "RA_OF_ASC_NODE": 295.3739, "ARG_OF_PERICENTER": 143.9591, "MEAN_ANOMALY": 216.544, "EPHEMERIS_TYPE": 0, "CLASSIFICATION_TYPE": "U", "NORAD_CAT_ID": 37330, "ELEMENT_SET_NO": 999, "REV_AT_EPOCH": 86366, "BSTAR": 0.0005148458, "MEAN_MOTION_DOT": 2.472e-05, "MEAN_MOTION_DDOT": 0}, "tle": {"line1": "1 37330U 93036BKW 25346.58956696  .00002472  00000+0  51485-3 0  9991", "line2": "2 37330  74.0183 295.3739 0057007 143.9591 216.5440 14.59539529863663"}}, "geometry": {"type": "Point", "coordinates": [93.46284667259073, 50.60864824313141]}}]}